TIANMU-1 08             
1 57400U 23101B   26066.00237819  .00000346  00000+0  14775-4 0  9993
2 57400  97.2717 118.7901 0006380 134.2174 225.9592 15.29204229146020
STARLINK-35560          
1 66059U 25235B   26068.89985248  .00032614  00000+0  11082-2 0  9997
2 66059  53.1581 244.2952 0000870  90.4613 269.6487 15.30206170 22952
